ATLAS CENTAUR 2         
1 00694U 63047A   26170.18780379  .00000940  00000+0  99297-4 0  9990
2 00694  30.3586 348.2064 0546006 255.1537  98.7986 14.12523106145981
THOR AGENA D R/B        
1 00733U 64002A   26170.31982809  .00000093  00000+0  50725-4 0  9995
2 00733  99.1153 189.1668 0032223 324.2674  35.6352 14.34066126252862
SL-3 R/B                
1 00877U 64053B   26170.04068158  .00000048  00000+0  33652-4 0  9992
2 00877  65.0776  34.0781 0080983 260.5333  98.6606 14.61427360281604
SL-8 R/B                
1 02802U 67045B   26170.23105294  .00000154  00000+0  50183-4 0  9996
2 02802  74.0095 158.4412 0063352 142.3015 218.2608 14.45682847103694
SL-8 R/B                
1 03230U 68040B   26170.24525483  .00002408  00000+0  17695-3 0  9999
2 03230  74.0309 106.0820 0026007 258.9183 100.9081 15.03826637105276
OAO 2                   
1 03597U 68110A   26170.05510434  .00000160  00000+0  48253-4 0  9990
2 03597  34.9942  59.2482 0006183 287.2130  72.7883 14.47352710 33799
ISIS 1                  
1 03669U 69009A   26169.34208588  .00000026  00000+0  18762-4 0  9995
2 03669  88.4427 144.2727 1706254 245.8900  95.4783 11.30433881359903
SERT 2                  
1 04327U 70009A   26170.26317265  .00000005  00000+0  63361-4 0  9997
2 04327  99.2841 107.8649 0003924 266.7621 253.1169 13.58739354793682
SL-3 R/B                
1 05118U 71028B   26170.28630875  .00044947  00000+0  37220-3 0  9992
2 05118  81.2334 285.7156 0014013 272.5045  87.4608 15.69916214  4579
ASTEX 1                 
1 05560U 71089A   26170.27932697  .00000279  00000+0  70904-4 0  9993
2 05560  92.6997 184.5297 0017960 100.0441 260.2793 14.50852987877032
SL-8 R/B                
1 05730U 71119B   26170.24126709  .00002609  00000+0  13583-3 0  9990
2 05730  73.8877 345.6112 0543722 291.1639  63.2246 14.39516994670099
OAO 3 (COPERNICUS)      
1 06153U 72065A   26170.16841329  .00000215  00000+0  48399-4 0  9999
2 06153  35.0061  79.1148 0007340 270.0752 241.6749 14.60061151861035
ATLAS CENTAUR R/B       
1 06155U 72065B   26170.10183920  .00000821  00000+0  11439-3 0  9998
2 06155  35.0018  71.3166 0033110 145.2383 215.0489 14.77924253856275
SL-8 R/B                
1 08459U 75112B   26170.33614532  .00000180  00000+0  67718-4 0  9996
2 08459  74.0590 191.9205 0016866 258.6217 101.3043 14.38247362646488
SL-3 R/B                
1 10114U 77057B   26170.22107439  .00009316  00000+0  18055-3 0  9997
2 10114  97.5843 346.8598 0005456 276.0897  83.9731 15.47919694684023
SEASAT 1                
1 10967U 78064A   26170.24545112  .00000157  00000+0  82273-4 0  9996
2 10967 108.0176 338.6094 0001755 240.3306 119.7665 14.46244541521195
SL-14 R/B               
1 11267U 79011B   26170.25457179  .00000407  00000+0  37524-4 0  9996
2 11267  82.5237   0.1919 0017519  79.3036 281.0156 14.92015880543921
SL-8 R/B                
1 11574U 79089B   26170.00824229  .00000159  00000+0  56095-4 0  9997
2 11574  74.0693 263.4863 0015025  46.5277 313.7126 14.42404705450716
SL-14 R/B               
1 11672U 80005B   26170.20026178  .00000327  00000+0  30377-4 0  9997
2 11672  82.5138 210.9307 0015680 179.1243 181.0007 14.91030206491619
SL-8 R/B                
1 12139U 81003B   26170.06866703  .00013481  00000+0  32831-3 0  9996
2 12139  82.9366 196.0234 0250748 184.6282 175.2637 15.14275072330005
SL-3 R/B                
1 12465U 81046B   26170.26294032  .00009784  00000+0  21100-3 0  9995
2 12465  81.2297 167.5684 0018321  30.9524 329.2795 15.44234359454093
SL-3 R/B                
1 12904U 81103B   26170.22309954  .00003536  00000+0  15220-3 0  9998
2 12904  81.1585  94.2416 0011698 308.6366  51.3818 15.22299395988670
SL-3 R/B                
1 13068U 82013B   26170.25971629  .00002990  00000+0  12604-3 0  9994
2 13068  81.1736  41.6252 0021529 193.7813 166.2835 15.22797687419804
SL-3 R/B                
1 13154U 82039B   26170.22082108  .00002945  00000+0  17550-3 0  9995
2 13154  81.1450  98.7363 0028560 349.4106  10.6514 15.10550116396964
SL-3 R/B                
1 13403U 82079B   26170.21482103  .00003775  00000+0  14549-3 0  9991
2 13403  81.1461  73.0892 0023858 178.6514 181.4789 15.25802762393170
SL-14 R/B               
1 13553U 82092B   26170.15685736  .00000302  00000+0  31053-4 0  9995
2 13553  82.5679  46.4603 0019492 328.4922 190.5299 14.86748962344005
SL-3 R/B                
1 13819U 83010B   26170.25507639  .00012315  00000+0  22363-3 0  9997
2 13819  81.1008 237.4187 0015387  55.4960 304.7736 15.49289490373652
SL-3 R/B                
1 14208U 83075B   26170.27749961  .00007945  00000+0  19670-3 0  9999
2 14208  97.6104 178.8672 0019516 221.0869 138.8908 15.40523488345787
COSMOS 1536             
1 14699U 84013A   26170.26199324  .00004399  00000+0  17431-3 0  9990
2 14699  82.5442   6.7779 0012601 287.1639  72.8219 15.25069637288098
SL-14 R/B               
1 14820U 84027B   26170.23495812  .00000349  00000+0  36962-4 0  9991
2 14820  82.5412 149.7967 0017954   2.5851 357.5455 14.86061035262715
